{"type": "FeatureCollection", "features": [ {"type": "Feature", "properties": {"norad_id": 44476, "name": "INTELSAT 39 (IS-39)", "group": "intelsat", "lat": 0.042600438541846954, "lon": 42.8924152165805, "alt_km": 35787.88206596092, "timestamp": "2025-12-04T17:48:39.841106+00:00", "meta": {"OBJECT_NAME": "INTELSAT 39 (IS-39)", "OBJECT_ID": "2019-049B", "EPOCH": "2025-12-04T03:44:50.063136", "MEAN_MOTION": 1.00270116, "ECCENTRICITY": 7.888e-05, "INCLINATION": 0.0174, "RA_OF_ASC_NODE": 324.8718, "ARG_OF_PERICENTER": 192.6163, "MEAN_ANOMALY": 33.9011, "EPHEMERIS_TYPE": 0, "CLASSIFICATION_TYPE": "U", "NORAD_CAT_ID": 44476, "ELEMENT_SET_NO": 999, "REV_AT_EPOCH": 2317, "BSTAR": 0, "MEAN_MOTION_DOT": 5e-07, "MEAN_MOTION_DDOT": 0}, "tle": {"line1": "1 44476U 19049B   25338.15613499  .00000050  00000+0  00000+0 0  9990", "line2": "2 44476   0.0174 324.8718 0000788 192.6163  33.9011  1.00270116 23171"}}, "geometry": {"type": "Point", "coordinates": [42.8924152165805, 0.042600438541846954]}}, {"type": "Feature", "properties": {"norad_id": 46114, "name": "GALAXY 30 (G-30)", "group": "intelsat", "lat": -0.03999469535363629, "lon": -144.06300090395817, "alt_km": 35779.00627188342, "timestamp": "2025-12-04T17:48:39.841118+00:00", "meta": {"OBJECT_NAME": "GALAXY 30 (G-30)", "OBJECT_ID": "2020-056C", "EPOCH": "2025-12-04T06:16:58.952352", "MEAN_MOTION": 1.0026698, "ECCENTRICITY": 0.00024727, "INCLINATION": 0.0157, "RA_OF_ASC_NODE": 322.8496, "ARG_OF_PERICENTER": 289.8453, "MEAN_ANOMALY": 149.8938, "EPHEMERIS_TYPE": 0, "CLASSIFICATION_TYPE": "U", "NORAD_CAT_ID": 46114, "ELEMENT_SET_NO": 999, "REV_AT_EPOCH": 1933, "BSTAR": 0, "MEAN_MOTION_DOT": 5.3e-07, "MEAN_MOTION_DDOT": 0}, "tle": {"line1": "1 46114U 20056C   25338.26179343  .00000053  00000+0  00000+0 0  9991", "line2": "2 46114   0.0157 322.8496 0002472 289.8453 149.8938  1.00266980 19339"}}, "geometry": {"type": "Point", "coordinates": [-144.06300090395817, -0.03999469535363629]}}, {"type": "Feature", "properties": {"norad_id": 54026, "name": "GALAXY 33 (G-33)", "group": "intelsat", "lat": -0.02433003975522466, "lon": -152.0395200599952, "alt_km": 35779.38536182178, "timestamp": "2025-12-04T17:48:39.841129+00:00", "meta": {"OBJECT_NAME": "GALAXY 33 (G-33)", "OBJECT_ID": "2022-128A", "EPOCH": "2025-12-04T04:32:00.542688", "MEAN_MOTION": 1.00272957, "ECCENTRICITY": 0.00020139, "INCLINATION": 0.0134, "RA_OF_ASC_NODE": 359.762, "ARG_OF_PERICENTER": 250.3751, "MEAN_ANOMALY": 118.1476, "EPHEMERIS_TYPE": 0, "CLASSIFICATION_TYPE": "U", "NORAD_CAT_ID": 54026, "ELEMENT_SET_NO": 999, "REV_AT_EPOCH": 1178, "BSTAR": 0, "MEAN_MOTION_DOT": 9.5e-07, "MEAN_MOTION_DDOT": 0}, "tle": {"line1": "1 54026U 22128A   25338.18889517  .00000095  00000+0  00000+0 0  9992", "line2": "2 54026   0.0134 359.7620 0002013 250.3751 118.1476  1.00272957 11786"}}, "geometry": {"type": "Point", "coordinates": [-152.0395200599952, -0.02433003975522466]}}, {"type": "Feature", "properties": {"norad_id": 54027, "name": "GALAXY 34 (G-34)", "group": "intelsat", "lat": -0.04542639331076262, "lon": -147.98414608972453, "alt_km": 35780.95052622253, "timestamp": "2025-12-04T17:48:39.841141+00:00", "meta": {"OBJECT_NAME": "GALAXY 34 (G-34)", "OBJECT_ID": "2022-128B", "EPOCH": "2025-12-03T23:24:52.608960", "MEAN_MOTION": 1.00272182, "ECCENTRICITY": 0.00014521, "INCLINATION": 0.023, "RA_OF_ASC_NODE": 323.101, "ARG_OF_PERICENTER": 285.0932, "MEAN_ANOMALY": 47.148, "EPHEMERIS_TYPE": 0, "CLASSIFICATION_TYPE": "U", "NORAD_CAT_ID": 54027, "ELEMENT_SET_NO": 999, "REV_AT_EPOCH": 1195, "BSTAR": 0, "MEAN_MOTION_DOT": 0, "MEAN_MOTION_DDOT": 0}, "tle": {"line1": "1 54027U 22128B   25337.97560890  .00000000  00000+0  00000+0 0  9995", "line2": "2 54027   0.0230 323.1010 0001452 285.0932  47.1480  1.00272182 11959"}}, "geometry": {"type": "Point", "coordinates": [-147.98414608972453, -0.04542639331076262]}}, {"type": "Feature", "properties": {"norad_id": 54243, "name": "GALAXY 31 (G-31)", "group": "intelsat", "lat": -0.019455052400458896, "lon": -140.0499320663452, "alt_km": 35780.058560208294, "timestamp": "2025-12-04T17:48:39.841153+00:00", "meta": {"OBJECT_NAME": "GALAXY 31 (G-31)", "OBJECT_ID": "2022-153A", "EPOCH": "2025-12-03T23:27:14.882112", "MEAN_MOTION": 1.0027208, "ECCENTRICITY": 0.00020897, "INCLINATION": 0.0112, "RA_OF_ASC_NODE": 21.6118, "ARG_OF_PERICENTER": 246.6524, "MEAN_ANOMALY": 35.6149, "EPHEMERIS_TYPE": 0, "CLASSIFICATION_TYPE": "U", "NORAD_CAT_ID": 54243, "ELEMENT_SET_NO": 999, "REV_AT_EPOCH": 517, "BSTAR": 0, "MEAN_MOTION_DOT": 3e-07, "MEAN_MOTION_DDOT": 0}, "tle": {"line1": "1 54243U 22153A   25337.97725558  .00000030  00000+0  00000+0 0  9990", "line2": "2 54243   0.0112  21.6118 0002089 246.6524  35.6149  1.00272080  5172"}}, "geometry": {"type": "Point", "coordinates": [-140.0499320663452, -0.019455052400458896]}}, {"type": "Feature", "properties": {"norad_id": 54244, "name": "GALAXY 32 (G-32)", "group": "intelsat", "lat": -0.034942198607306685, "lon": -110.0674988563113, "alt_km": 35780.28202995078, "timestamp": "2025-12-04T17:48:39.841164+00:00", "meta": {"OBJECT_NAME": "GALAXY 32 (G-32)", "OBJECT_ID": "2022-153B", "EPOCH": "2025-12-03T13:19:23.206080", "MEAN_MOTION": 1.00270437, "ECCENTRICITY": 0.00025394, "INCLINATION": 0.0105, "RA_OF_ASC_NODE": 329.1215, "ARG_OF_PERICENTER": 335.3454, "MEAN_ANOMALY": 237.0261, "EPHEMERIS_TYPE": 0, "CLASSIFICATION_TYPE": "U", "NORAD_CAT_ID": 54244, "ELEMENT_SET_NO": 999, "REV_AT_EPOCH": 1118, "BSTAR": 0, "MEAN_MOTION_DOT": -1.56e-06, "MEAN_MOTION_DDOT": 0}, "tle": {"line1": "1 54244U 22153B   25337.55512970 -.00000156  00000+0  00000+0 0  9997", "line2": "2 54244   0.0105 329.1215 0002539 335.3454 237.0261  1.00270437 11182"}}, "geometry": {"type": "Point", "coordinates": [-110.0674988563113, -0.034942198607306685]}}, {"type": "Feature", "properties": {"norad_id": 54741, "name": "GALAXY 35 (G-35)", "group": "intelsat", "lat": -0.03771254406303076, "lon": -112.16368909248041, "alt_km": 35775.035946886936, "timestamp": "2025-12-04T17:48:39.841175+00:00", "meta": {"OBJECT_NAME": "GALAXY 35 (G-35)", "OBJECT_ID": "2022-170A", "EPOCH": "2025-12-04T06:26:05.580096", "MEAN_MOTION": 1.00270619, "ECCENTRICITY": 0.0002763, "INCLINATION": 0.0143, "RA_OF_ASC_NODE": 352.9174, "ARG_OF_PERICENTER": 268.1964, "MEAN_ANOMALY": 175.6421, "EPHEMERIS_TYPE": 0, "CLASSIFICATION_TYPE": "U", "NORAD_CAT_ID": 54741, "ELEMENT_SET_NO": 999, "REV_AT_EPOCH": 1093, "BSTAR": 0, "MEAN_MOTION_DOT": 0, "MEAN_MOTION_DDOT": 0}, "tle": {"line1": "1 54741U 22170A   25338.26812014  .00000000  00000+0  00000+0 0  9996", "line2": "2 54741   0.0143 352.9174 0002763 268.1964 175.6421  1.00270619 10931"}}, "geometry": {"type": "Point", "coordinates": [-112.16368909248041, -0.03771254406303076]}}, {"type": "Feature", "properties": {"norad_id": 54742, "name": "GALAXY 36 (G-36)", "group": "intelsat", "lat": -0.019815941925916968, "lon": -108.04433324982425, "alt_km": 35783.84883046468, "timestamp": "2025-12-04T17:48:39.841187+00:00", "meta": {"OBJECT_NAME": "GALAXY 36 (G-36)", "OBJECT_ID": "2022-170B", "EPOCH": "2025-12-04T06:27:12.972096", "MEAN_MOTION": 1.00270215, "ECCENTRICITY": 6.388e-05, "INCLINATION": 0.0139, "RA_OF_ASC_NODE": 269.8216, "ARG_OF_PERICENTER": 342.5817, "MEAN_ANOMALY": 188.747, "EPHEMERIS_TYPE": 0, "CLASSIFICATION_TYPE": "U", "NORAD_CAT_ID": 54742, "ELEMENT_SET_NO": 999, "REV_AT_EPOCH": 1081, "BSTAR": 0, "MEAN_MOTION_DOT": -1.69e-06, "MEAN_MOTION_DDOT": 0}, "tle": {"line1": "1 54742U 22170B   25338.26890014 -.00000169  00000+0  00000+0 0  9990", "line2": "2 54742   0.0139 269.8216 0000638 342.5817 188.7470  1.00270215 10811"}}, "geometry": {"type": "Point", "coordinates": [-108.04433324982425, -0.019815941925916968]}}, {"type": "Feature", "properties": {"norad_id": 57493, "name": "GALAXY 37 (G-37)", "group": "intelsat", "lat": -0.03686245590277486, "lon": -146.03878532348304, "alt_km": 35778.21030434985, "timestamp": "2025-12-04T17:48:39.841199+00:00", "meta": {"OBJECT_NAME": "GALAXY 37 (G-37)", "OBJECT_ID": "2023-112A", "EPOCH": "2025-12-03T16:22:38.540064", "MEAN_MOTION": 1.00273078, "ECCENTRICITY": 0.00024793, "INCLINATION": 0.0143, "RA_OF_ASC_NODE": 302.8949, "ARG_OF_PERICENTER": 316.0904, "MEAN_ANOMALY": 292.4607, "EPHEMERIS_TYPE": 0, "CLASSIFICATION_TYPE": "U", "NORAD_CAT_ID": 57493, "ELEMENT_SET_NO": 999, "REV_AT_EPOCH": 858, "BSTAR": 0, "MEAN_MOTION_DOT": 6.5e-07, "MEAN_MOTION_DDOT": 0}, "tle": {"line1": "1 57493U 23112A   25337.68239051  .00000065  00000+0  00000+0 0  9990", "line2": "2 57493   0.0143 302.8949 0002479 316.0904 292.4607  1.00273078  8587"}}, "geometry": {"type": "Point", "coordinates": [-146.03878532348304, -0.03686245590277486]}}]}